SL-3 R/B                
1 19046U 88032B   26077.88335122  .00004345  00000+0  20328-3 0  9998
2 19046  97.5200  61.1025 0025263 198.0017 162.0326 15.20011312 53503
SL-16 R/B               
1 19120U 88039B   26077.64720868 -.00000013  00000+0  16503-4 0  9997
2 19120  71.0148  49.6051 0023208 321.3925  38.5539 14.19617780959652
COSMOS 1953             
1 19210U 88050A   26077.46290203  .00005846  00000+0  20810-3 0  9998
2 19210  82.5100 149.4239 0012659  95.0796 265.1889 15.28668002 39124
SL-8 R/B                
1 19257U 88053B   26077.78585690  .00000280  00000+0  99274-4 0  9992
2 19257  74.0450  95.6980 0021541 273.8298 259.2661 14.38921740977907
COSMOS 1975             
1 19573U 88093A   26077.82672151  .00005329  00000+0  19236-3 0  9999
2 19573  82.5164 108.5105 0012927 133.3578 226.8740 15.28189480 20809
SL-14 R/B               
1 19574U 88093B   26077.88792064  .00000521  00000+0  57054-4 0  9992
2 19574  82.5324  33.4094 0021013  12.1867  40.8415 14.85667655  2385
SL-16 R/B               
1 19650U 88102B   26077.87554582 -.00000044  00000+0  20039-5 0  9993
2 19650  70.9990 132.1700 0014620 347.2285  12.8466 14.16156063928194
INTERCOSMOS 24          
1 20261U 89080A   26077.46044802  .00000587  00000+0  17467-3 0  9993
2 20261  82.6017  98.6913 1186671 272.4415  74.1646 12.59570718667909
SL-14 R/B               
1 20262U 89080C   26077.35798295  .00000469  00000+0  13442-3 0  9992
2 20262  82.5967 167.6237 1230775 164.9438 199.2059 12.50503429661237
DELTA 1 R/B             
1 20323U 89089B   26077.58768156  .00000348  00000+0  94494-4 0  9990
2 20323  97.0699 283.6107 0070718  94.4002 266.5280 14.50670691897025
ARIANE 40 R/B           
1 20443U 90005H   26077.56939286  .00000236  00000+0  88573-4 0  9992
2 20443  98.3064 137.9655 0010408 171.5598 188.5768 14.39876257894084
DELTA 2 R/B(1)          
1 20453U 90008B   26077.80286397  .00048118  00000+0  54577-3 0  9998
2 20453  35.6024 114.9908 0082024 343.0931  16.7077 15.57130229927558
